LIZZIESAT-1 (LS-1)      
1 59132U 24043AL  26068.89230471  .00005784  00000+0  22329-3 0  9993
2 59132  97.5461 203.4772 0009923 229.9925 130.0443 15.26635711111780
STARLINK-35786          
1 67040U 25294L   26068.93056065  .00029442  00000+0  10747-2 0  9996
2 67040  42.9947  36.9209 0000440 105.6907 254.3993 15.27593319 14835
