[{"OBJECT_NAME":"LIZZIESAT-1 (LS-1)","OBJECT_ID":"2024-043AL","EPOCH":"2026-03-09T21:24:55.126944","MEAN_MOTION":15.26635712,"ECCENTRICITY":0.00099234,"INCLINATION":97.5461,"RA_OF_ASC_NODE":203.4772,"ARG_OF_PERICENTER":229.9925,"MEAN_ANOMALY":130.0443,"EPHEMERIS_TYPE":0,"CLASSIFICATION_TYPE":"U","NORAD_CAT_ID":59132,"ELEMENT_SET_NO":999,"REV_AT_EPOCH":11178,"BSTAR":0.0002232873,"MEAN_MOTION_DOT":5.784e-5,"MEAN_MOTION_DDOT":0},{"OBJECT_NAME":"STARLINK-35786","OBJECT_ID":"2025-294L","EPOCH":"2026-03-09T22:20:00.440160","MEAN_MOTION":15.27593319,"ECCENTRICITY":4.403e-5,"INCLINATION":42.9947,"RA_OF_ASC_NODE":36.9209,"ARG_OF_PERICENTER":105.6907,"MEAN_ANOMALY":254.3993,"EPHEMERIS_TYPE":0,"CLASSIFICATION_TYPE":"U","NORAD_CAT_ID":67040,"ELEMENT_SET_NO":999,"REV_AT_EPOCH":1483,"BSTAR":0.0010747091,"MEAN_MOTION_DOT":0.00029442,"MEAN_MOTION_DDOT":0}]
